OBJECT_NAME,OBJECT_ID,EPOCH,MEAN_MOTION,ECCENTRICITY,INCLINATION,RA_OF_ASC_NODE,ARG_OF_PERICENTER,MEAN_ANOMALY,EPHEMERIS_TYPE,CLASSIFICATION_TYPE,NORAD_CAT_ID,ELEMENT_SET_NO,REV_AT_EPOCH,BSTAR,MEAN_MOTION_DOT,MEAN_MOTION_DDOT
SCD 1,1993-009B,2026-07-22T18:57:21.761280,14.46130844,.00419344,24.9709,347.7497,154.5396,349.9994,0,U,22490,999,76627,.47267425E-4,.359E-5,0
TECHSAT 1B (GO-32),1998-043D,2026-07-22T11:12:09.929376,14.24434333,.00023271,99.0091,197.1189,103.4335,256.7103,0,U,25397,999,45635,.35821596E-4,.36E-6,0
SCD 2,1998-060A,2026-07-22T08:49:51.098592,14.45536331,.00169282,24.9935,215.2005,134.2465,248.7662,0,U,25504,999,46542,.36489391E-4,.313E-5,0
DLR-TUBSAT,1999-029B,2026-07-22T21:49:50.208096,14.52434512,.00131476,98.6717,200.5928,239.2754,120.7146,0,U,25757,999,43843,.29482139E-4,.72E-6,0
TERRA,1999-068A,2026-07-22T21:50:45.358080,14.61127958,.0003648,97.9435,252.0364,107.6896,356.9651,0,U,25994,999,41482,.67347403E-4,.287E-5,0
MAROC-TUBSAT,2001-056D,2026-07-22T11:32:16.356768,13.70263745,.00204779,99.8104,21.0089,54.0994,330.8625,0,U,27004,999,23102,.31035012E-4,-.19E-6,0
AQUA,2002-022A,2026-07-22T21:58:28.560576,14.62136816,.00013529,98.4303,173.9179,102.2720,334.9319,0,U,27424,999,28849,.13493284E-3,.629E-5,0
SHIYAN-1 (SY-1),2004-012A,2026-07-22T22:12:25.494048,15.34595624,.00044356,97.8673,284.3365,239.8683,120.2119,0,U,28220,999,21657,.45548385E-3,.15198E-3,0
AURA,2004-026A,2026-07-22T20:44:51.443520,14.61376012,.00014287,98.3435,160.6183,93.8003,266.3361,0,U,28376,999,17142,.13629248E-3,.626E-5,0
IRS-P5 (CARTOSAT-1),2005-017A,2026-07-22T12:15:12.302784,14.91130144,.00009507,97.5307,224.9733,58.4804,301.6508,0,U,28649,999,14908,.92761994E-4,.868E-5,0
SINAH 1,2005-043D,2026-07-22T20:43:42.522240,14.64179342,.0014923,98.2902,338.4042,159.9643,200.2148,0,U,28893,999,10574,.63741501E-4,.286E-5,0
RESURS-DK 1,2006-021A,2026-07-22T07:59:27.691296,15.13337369,.00075242,69.9299,248.5646,263.4935,96.5374,0,U,29228,999,10789,.86164191E-4,.1431E-4,0
ARIRANG-2 (KOMPSAT-2),2006-031A,2026-07-22T23:20:43.183392,14.64679099,.00135564,97.8326,26.6901,325.4103,195.8268,0,U,29268,999,6671,.79454631E-4,.378E-5,0
LAPAN-TUBSAT,2007-001A,2026-07-22T22:38:03.198048,14.85979764,.00135615,98.1365,203.9765,71.4560,288.8127,0,U,29709,999,5646,.20977658E-4,.126E-5,0
HAIYANG-1B,2007-010A,2026-07-22T20:58:26.529024,14.31034812,.00148252,98.3522,184.3396,94.9762,265.3114,0,U,31113,999,574,.47143485E-4,.83E-6,0
COSMO-SKYMED 1,2007-023A,2026-07-22T22:59:13.968384,14.97252401,.00019358,97.8863,36.1174,93.5451,266.5991,0,U,31598,999,3514,.26540411E-3,.3014E-4,0
TERRASAR-X,2007-026A,2026-07-22T11:55:52.401792,15.19149840,.00017968,97.4457,210.7016,80.1769,279.9668,0,U,31698,999,5858,.15522946E-4,.259E-5,0
WORLDVIEW-1 (WV-1),2007-041A,2026-07-22T16:07:13.714464,15.24617597,.00022481,97.3901,322.9209,177.8116,182.3132,0,U,32060,999,4828,.25213571E-3,.615E-4,0
YAOGAN-3,2007-055A,2026-07-22T23:13:57.720288,14.90900907,.00014893,97.8147,233.4922,87.9111,272.2277,0,U,32289,999,1120,.19556348E-3,.1873E-4,0
COSMO-SKYMED 2,2007-059A,2026-07-22T22:35:57.651072,14.82155216,.00014822,97.8898,27.0230,93.7848,266.3535,0,U,32376,999,730,.5089353E-4,.353E-5,0
RADARSAT-2,2007-061A,2026-07-23T00:04:04.905984,14.29980151,.00013053,98.5795,210.4244,87.7182,272.4150,0,U,32382,999,97107,-.37342504E-4,-.14E-5,0
CARTOSAT-2A,2008-021A,2026-07-22T23:09:07.715232,14.79282677,.00117658,97.7615,251.4487,3.2036,356.9249,0,U,32783,999,98409,.9048721E-4,.623E-5,0
HUANJING 1A (HJ-1A),2008-041A,2026-07-22T23:15:51.683616,14.84060328,.00197269,97.6710,188.4294,25.6561,334.5628,0,U,33320,999,96371,.10761219E-3,.848E-5,0
HUANJING 1B (HJ-1B),2008-041B,2026-07-22T22:55:01.790112,14.83375427,.00379144,97.6547,191.4782,67.0159,293.5049,0,U,33321,999,96371,.79009283E-4,.604E-5,0
GEOEYE 1,2008-042A,2026-07-22T21:08:40.737120,14.64654087,.00034396,98.1321,277.3866,317.8510,42.2428,0,U,33331,999,95537,.73204422E-4,.342E-5,0
THEOS,2008-049A,2026-07-22T23:19:16.590720,14.20136853,.00011451,98.5552,260.0897,93.1417,266.9891,0,U,33396,999,92304,-.57648819E-4,-.165E-5,0
COSMO-SKYMED 3,2008-054A,2026-07-22T22:20:07.512864,15.07154159,.00167985,97.8256,63.0923,140.1669,220.0795,0,U,33412,999,96232,.29294803E-3,.4352E-4,0
YAOGAN-4,2008-061A,2026-07-22T07:32:50.140608,14.83260998,.00132819,97.9302,136.5669,321.4364,38.5899,0,U,33446,999,95087,.99196094E-4,.758E-5,0
GOSAT (IBUKI),2009-002A,2026-07-22T14:14:02.519808,14.67540019,.00011012,98.0915,314.2355,92.8914,267.2417,0,U,33492,999,93665,.87748187E-4,.449E-5,0
DEIMOS-1,2009-041A,2026-07-22T22:20:19.506912,14.75268688,.00028057,97.7448,359.6173,82.3614,277.7914,0,U,35681,999,91215,.61044884E-4,.365E-5,0
